{
  "type": "FeatureCollection",
  "features": [
    {
      "type": "Feature",
      "properties": {
        "norad_id": 31016,
        "name": "FENGYUN 1C DEB",
        "group": "fengyun-1c-debris",
        "lat": 65.41536016823892,
        "lon": -168.48436730876233,
        "alt_km": 862.5104307334204,
        "timestamp": "2025-12-02T10:50:47.554081+00:00",
        "meta_object_name": "FENGYUN 1C DEB",
        "meta_object_id": "1999-025BDJ",
        "meta_epoch": "2025-12-01T21:26:47.273280",
        "meta_mean_motion": 14.30464176,
        "meta_eccentricity": 0.011222,
        "meta_inclination": 98.4374,
        "meta_ra_of_asc_node": 352.043,
        "meta_arg_of_pericenter": 306.5225,
        "meta_mean_anomaly": 172.7449,
        "meta_ephemeris_type": 0,
        "meta_classification_type": "U",
        "meta_norad_cat_id": 31016,
        "meta_element_set_no": 999,
        "meta_rev_at_epoch": 97315,
        "meta_bstar": 0.00034341,
        "meta_mean_motion_dot": 9.13e-06,
        "meta_mean_motion_ddot": 0,
        "tle_line1": "1 31016U 99025BDJ 25335.89360270  .00000913  00000+0  34341-3 0  9999",
        "tle_line2": "2 31016  98.4374 352.0430 0112220 306.5225 172.7449 14.30464176973151"
      },
      "geometry": {
        "type": "Point",
        "coordinates": [
          -168.48436730876233,
          65.41536016823892
        ]
      }
    },
    {
      "type": "Feature",
      "properties": {
        "norad_id": 31017,
        "name": "FENGYUN 1C DEB",
        "group": "fengyun-1c-debris",
        "lat": 6.075828509469863,
        "lon": 143.89336515180668,
        "alt_km": 939.7882818104417,
        "timestamp": "2025-12-02T10:50:47.554091+00:00",
        "meta_object_name": "FENGYUN 1C DEB",
        "meta_object_id": "1999-025BDK",
        "meta_epoch": "2025-12-01T22:14:03.658272",
        "meta_mean_motion": 14.08793931,
        "meta_eccentricity": 0.0113779,
        "meta_inclination": 98.6789,
        "meta_ra_of_asc_node": 322.4558,
        "meta_arg_of_pericenter": 20.7136,
        "meta_mean_anomaly": 8.7497,
        "meta_ephemeris_type": 0,
        "meta_classification_type": "U",
        "meta_norad_cat_id": 31017,
        "meta_element_set_no": 999,
        "meta_rev_at_epoch": 96144,
        "meta_bstar": 0.00045741,
        "meta_mean_motion_dot": 7.96e-06,
        "meta_mean_motion_ddot": 0,
        "tle_line1": "1 31017U 99025BDK 25335.92643123  .00000796  00000+0  45741-3 0  9990",
        "tle_line2": "2 31017  98.6789 322.4558 0113779  20.7136   8.7497 14.08793931961441"
      },
      "geometry": {
        "type": "Point",
        "coordinates": [
          143.89336515180668,
          6.075828509469863
        ]
      }
    },
    {
      "type": "Feature",
      "properties": {
        "norad_id": 31018,
        "name": "FENGYUN 1C DEB",
        "group": "fengyun-1c-debris",
        "lat": 78.65365830778072,
        "lon": -64.5456705737975,
        "alt_km": 805.2641837730971,
        "timestamp": "2025-12-02T10:50:47.554121+00:00",
        "meta_object_name": "FENGYUN 1C DEB",
        "meta_object_id": "1999-025BDL",
        "meta_epoch": "2025-11-27T23:36:31.607424",
        "meta_mean_motion": 14.16763337,
        "meta_eccentricity": 0.0059953,
        "meta_inclination": 99.0255,
        "meta_ra_of_asc_node": 58.5417,
        "meta_arg_of_pericenter": 166.8223,
        "meta_mean_anomaly": 193.4534,
        "meta_ephemeris_type": 0,
        "meta_classification_type": "U",
        "meta_norad_cat_id": 31018,
        "meta_element_set_no": 999,
        "meta_rev_at_epoch": 95846,
        "meta_bstar": 0.0019662,
        "meta_mean_motion_dot": 3.959e-05,
        "meta_mean_motion_ddot": 0,
        "tle_line1": "1 31018U 99025BDL 25331.98369916  .00003959  00000+0  19662-2 0  9994",
        "tle_line2": "2 31018  99.0255  58.5417 0059953 166.8223 193.4534 14.16763337958466"
      },
      "geometry": {
        "type": "Point",
        "coordinates": [
          -64.5456705737975,
          78.65365830778072
        ]
      }
    },
    {
      "type": "Feature",
      "properties": {
        "norad_id": 31019,
        "name": "FENGYUN 1C DEB",
        "group": "fengyun-1c-debris",
        "lat": 56.22514586771041,
        "lon": 11.136225247715263,
        "alt_km": 2663.258458697167,
        "timestamp": "2025-12-02T10:50:47.554132+00:00",
        "meta_object_name": "FENGYUN 1C DEB",
        "meta_object_id": "1999-025BDM",
        "meta_epoch": "2025-12-01T11:54:56.953728",
        "meta_mean_motion": 11.82937409,
        "meta_eccentricity": 0.11191603,
        "meta_inclination": 98.7033,
        "meta_ra_of_asc_node": 177.2685,
        "meta_arg_of_pericenter": 305.0923,
        "meta_mean_anomaly": 70.4876,
        "meta_ephemeris_type": 0,
        "meta_classification_type": "U",
        "meta_norad_cat_id": 31019,
        "meta_element_set_no": 999,
        "meta_rev_at_epoch": 55048,
        "meta_bstar": 0.0036567783,
        "meta_mean_motion_dot": 1.347e-05,
        "meta_mean_motion_ddot": 0,
        "tle_line1": "1 31019U 99025BDM 25335.49649252  .00001347  00000+0  36568-2 0  9992",
        "tle_line2": "2 31019  98.7033 177.2685 1119160 305.0923  70.4876 11.82937409550481"
      },
      "geometry": {
        "type": "Point",
        "coordinates": [
          11.136225247715263,
          56.22514586771041
        ]
      }
    },
    {
      "type": "Feature",
      "properties": {
        "norad_id": 31021,
        "name": "FENGYUN 1C DEB",
        "group": "fengyun-1c-debris",
        "lat": -67.85373553487925,
        "lon": -114.56231539060038,
        "alt_km": 481.04449781412313,
        "timestamp": "2025-12-02T10:50:47.554142+00:00",
        "meta_object_name": "FENGYUN 1C DEB",
        "meta_object_id": "1999-025BDP",
        "meta_epoch": "2025-11-23T02:39:04.527648",
        "meta_mean_motion": 14.74941254,
        "meta_eccentricity": 0.0268991,
        "meta_inclination": 98.348,
        "meta_ra_of_asc_node": 76.9426,
        "meta_arg_of_pericenter": 304.648,
        "meta_mean_anomaly": 52.9635,
        "meta_ephemeris_type": 0,
        "meta_classification_type": "U",
        "meta_norad_cat_id": 31021,
        "meta_element_set_no": 999,
        "meta_rev_at_epoch": 73143,
        "meta_bstar": 0.00041319973,
        "meta_mean_motion_dot": 4.94e-05,
        "meta_mean_motion_ddot": 0,
        "tle_line1": "1 31021U 99025BDP 25327.11046907  .00004940  00000+0  41320-3 0  9998",
        "tle_line2": "2 31021  98.3480  76.9426 0268991 304.6480  52.9635 14.74941254731434"
      },
      "geometry": {
        "type": "Point",
        "coordinates": [
          -114.56231539060038,
          -67.85373553487925
        ]
      }
    },
    {
      "type": "Feature",
      "properties": {
        "norad_id": 31022,
        "name": "FENGYUN 1C DEB",
        "group": "fengyun-1c-debris",
        "lat": 32.03759628768033,
        "lon": -146.16050629898828,
        "alt_km": 960.4513671565528,
        "timestamp": "2025-12-02T10:50:47.554155+00:00",
        "meta_object_name": "FENGYUN 1C DEB",
        "meta_object_id": "1999-025BDQ",
        "meta_epoch": "2025-11-29T22:14:32.342208",
        "meta_mean_motion": 13.9042789,
        "meta_eccentricity": 0.01095005,
        "meta_inclination": 99.5166,
        "meta_ra_of_asc_node": 217.2812,
        "meta_arg_of_pericenter": 156.1231,
        "meta_mean_anomaly": 204.506,
        "meta_ephemeris_type": 0,
        "meta_classification_type": "U",
        "meta_norad_cat_id": 31022,
        "meta_element_set_no": 999,
        "meta_rev_at_epoch": 61830,
        "meta_bstar": 0.00039044901,
        "meta_mean_motion_dot": 4.63e-06,
        "meta_mean_motion_ddot": 0,
        "tle_line1": "1 31022U 99025BDQ 25333.92676322  .00000463  00000+0  39045-3 0  9992",
        "tle_line2": "2 31022  99.5166 217.2812 0109500 156.1231 204.5060 13.90427890618301"
      },
      "geometry": {
        "type": "Point",
        "coordinates": [
          -146.16050629898828,
          32.03759628768033
        ]
      }
    },
    {
      "type": "Feature",
      "properties": {
        "norad_id": 31024,
        "name": "FENGYUN 1C DEB",
        "group": "fengyun-1c-debris",
        "lat": -45.585672863290064,
        "lon": 60.20138853505726,
        "alt_km": 812.581184603393,
        "timestamp": "2025-12-02T10:50:47.554165+00:00",
        "meta_object_name": "FENGYUN 1C DEB",
        "meta_object_id": "1999-025BDS",
        "meta_epoch": "2025-12-01T23:38:59.869824",
        "meta_mean_motion": 14.20837686,
        "meta_eccentricity": 0.0074653,
        "meta_inclination": 99.0413,
        "meta_ra_of_asc_node": 249.0771,
        "meta_arg_of_pericenter": 155.1825,
        "meta_mean_anomaly": 205.2971,
        "meta_ephemeris_type": 0,
        "meta_classification_type": "U",
        "meta_norad_cat_id": 31024,
        "meta_element_set_no": 999,
        "meta_rev_at_epoch": 96551,
        "meta_bstar": 0.00031138,
        "meta_mean_motion_dot": 6.46e-06,
        "meta_mean_motion_ddot": 0,
        "tle_line1": "1 31024U 99025BDS 25335.98541516  .00000646  00000+0  31138-3 0  9996",
        "tle_line2": "2 31024  99.0413 249.0771 0074653 155.1825 205.2971 14.20837686965517"
      },
      "geometry": {
        "type": "Point",
        "coordinates": [
          60.20138853505726,
          -45.585672863290064
        ]
      }
    }
  ]
}